1 25544U 98067A   20243.23303523  .00001748  00000-0  39609-4 0  9993
2 25544  51.6470 342.0279 0001860  69.3228 129.2061 15.49199437243492
1 25544U 98067A   20243.46934095  .00001451  00000-0  34247-4 0  9996
2 25544  51.6469 340.8585 0001843  71.0954   6.2047 15.49199197243539
1 25544U 98067A   20243.55207176  .00001517  00000-0  35448-4 0  9996
2 25544  51.6469 340.4491 0001842  71.3932 107.6119 15.49199752243543
1 25544U 98067A   20243.67473133  .00001549  00000-0  36024-4 0  9993
2 25544  51.6473 339.8433 0001892  70.4321  73.1103 15.49200407243565
1 25544U 98067A   20243.80412337  .00001618  00000-0  37271-4 0  9999
2 25544  51.6472 339.2027 0001907  71.5231  74.1322 15.49201228243584
1 25544U 98067A   20244.23343841 -.00046896  00000-0 -84260-3 0  9998
2 25544  51.6443 337.0869 0001436  56.1768 325.3986 15.49190210243656
1 25544U 98067A   20244.37929229 -.00124575  00000-0 -22775-2 0  9996
2 25544  51.6435 336.3610 0001962  69.9030  45.6398 15.49147397243670
1 25544U 98067A   20244.50735772  .00001357  00000-0  32568-4 0  9992
2 25544  51.6469 335.7229 0001907  74.3669  35.9006 15.49202732243698
1 25544U 98067A   20244.64261447  .00001423  00000-0  33743-4 0  9990
2 25544  51.6469 335.0535 0001907  74.8621  70.2498 15.49203578243713
1 25544U 98067A   20244.70307891  .00001471  00000-0  34606-4 0  9993
2 25544  51.6469 334.7542 0001907  75.0860  47.4678 15.49204068243727
1 25544U 98067A   20244.77120990  .00001471  00000-0  34606-4 0  9993
2 25544  51.6469 334.4170 0001906  75.3351  67.4452 15.49204331243734
1 25544U 98067A   20245.23408922  .00001471  00000-0  34606-4 0  9999
2 25544  51.6469 332.1259 0001906  77.0322 128.9945 15.49206112243801
1 25544U 98067A   20245.47141579  .00001224  00000-0  30163-4 0  9997
2 25544  51.6470 330.9523 0001969  76.0427  14.4534 15.49205543243841
1 25544U 98067A   20245.54273206  .00001105  00000-0  28011-4 0  9995
2 25544  51.6470 330.5993 0001969  76.3035  52.1929 15.49205005243857
1 25544U 98067A   20245.73792216  .00001160  00000-0  29013-4 0  9997
2 25544  51.6470 329.6332 0001968  77.0210  60.7989 15.49206067243888
1 25544U 98067A   20245.73792216  .00001285  00000-0  31259-4 0  9990
2 25544  51.6475 329.6346 0001977  75.2782  62.5422 15.49206744243886
1 25544U 98067A   20246.23478699  .00001468  00000-0  34560-4 0  9993
2 25544  51.6478 327.1776 0002033  73.5388 317.1982 15.49209074243964
1 25544U 98067A   20246.52346065  .00001237  00000-0  30384-4 0  9990
2 25544  51.6475 325.7476 0001979  76.1582 125.6187 15.49209382244002
1 25544U 98067A   20246.70492951 +.00001282 +00000-0 +31208-4 0  9992
2 25544 051.6476 324.8498 0002000 075.7486 058.7771 15.49210283244031
1 25544U 98067A   20247.08096259  .00001278  00000-0  31127-4 0  9990
2 25544  51.6476 322.9885 0001999  76.6859 356.4205 15.49211586244093
1 25544U 98067A   20247.21698419  .00001313  00000-0  31759-4 0  9992
2 25544  51.6476 322.3154 0001980  77.4087  34.8144 15.49212317244113
1 25544U 98067A   20247.40417950  .00001292  00000-0  31384-4 0  9992
2 25544  51.6474 321.3900 0001990  79.3633 357.5665 15.49212758244143
1 25544U 98067A   20247.54311569  .00001514  00000-0  35371-4 0  9993
2 25544  51.6474 320.7023 0001990  79.8727  52.4419 15.49214215244161
1 25544U 98067A   20247.73901231  .00001549  00000-0  36012-4 0  9996
2 25544  51.6474 319.7327 0001990  80.5924  64.9928 15.49215099244191
1 25544U 98067A   20247.93730492  .00001386  00000-0  33077-4 0  9994
2 25544  51.6479 318.7522 0002008  79.3887  92.8345 15.49215077244220
1 25544U 98067A   20248.16832984  .00001388  00000-0  33114-4 0  9993
2 25544  51.6478 317.6087 0002004  80.1777 301.3626 15.49215949244269
1 25544U 98067A   20248.24740521  .00001300  00000-0  31518-4 0  9997
2 25544  51.6478 317.2174 0002004  80.4703  22.3765 15.49215668244277
1 25544U 98067A   20248.45476852 -.00000419  00000-0  55001-6 0  9999
2 25544  51.6467 316.1940 0002005  80.9135  99.1849 15.49211068244308
1 25544U 98067A   20248.57720557  .00001044  00000-0  26917-4 0  9992
2 25544  51.6467 315.5879 0002005  81.3643  62.0421 15.49215079244324
1 25544U 98067A   20248.70751205  .00000867  00000-0  23714-4 0  9995
2 25544  51.6467 314.9430 0002005  81.8433  68.7821 15.49214624244346
1 25544U 98067A   20248.82924949  .00000770  00000-0  21980-4 0  9991
2 25544  51.6467 314.3404 0002005  82.2929  27.7305 15.49214537244363
