OBJECT_NAME,OBJECT_ID,EPOCH,MEAN_MOTION,ECCENTRICITY,INCLINATION,RA_OF_ASC_NODE,ARG_OF_PERICENTER,MEAN_ANOMALY,EPHEMERIS_TYPE,CLASSIFICATION_TYPE,NORAD_CAT_ID,ELEMENT_SET_NO,REV_AT_EPOCH,BSTAR,MEAN_MOTION_DOT,MEAN_MOTION_DDOT
ISS (ZARYA),1998-067A,2020-08-30T05:35:34.243872,15.49199437,.000186,51.6470,342.0279,69.3228,129.2061,0,U,25544,999,24349,.39609E-4,.1748E-4,0
ISS (ZARYA),1998-067A,2020-08-30T11:15:51.058080,15.49199197,.0001843,51.6469,340.8585,71.0954,6.2047,0,U,25544,999,24353,.34247E-4,.1451E-4,0
ISS (ZARYA),1998-067A,2020-08-30T13:14:59.000064,15.49199752,.0001842,51.6469,340.4491,71.3932,107.6119,0,U,25544,999,24354,.35448E-4,.1517E-4,0
ISS (ZARYA),1998-067A,2020-08-30T16:11:36.786912,15.49200407,.0001892,51.6473,339.8433,70.4321,73.1103,0,U,25544,999,24356,.36024E-4,.1549E-4,0
ISS (ZARYA),1998-067A,2020-08-30T19:17:56.259168,15.49201228,.0001907,51.6472,339.2027,71.5231,74.1322,0,U,25544,999,24358,.37271E-4,.1618E-4,0
ISS (ZARYA),1998-067A,2020-08-31T05:36:09.078624,15.49190210,.0001436,51.6443,337.0869,56.1768,325.3986,0,U,25544,999,24365,-.8426E-3,-.46896E-3,0
ISS (ZARYA),1998-067A,2020-08-31T09:06:10.853856,15.49147397,.0001962,51.6435,336.3610,69.9030,45.6398,0,U,25544,999,24367,-.22775E-2,-.124575E-2,0
ISS (ZARYA),1998-067A,2020-08-31T12:10:35.707008,15.49202732,.0001907,51.6469,335.7229,74.3669,35.9006,0,U,25544,999,24369,.32568E-4,.1357E-4,0
ISS (ZARYA),1998-067A,2020-08-31T15:25:21.890208,15.49203578,.0001907,51.6469,335.0535,74.8621,70.2498,0,U,25544,999,24371,.33743E-4,.1423E-4,0
ISS (ZARYA),1998-067A,2020-08-31T16:52:26.017824,15.49204068,.0001907,51.6469,334.7542,75.0860,47.4678,0,U,25544,999,24372,.34606E-4,.1471E-4,0
ISS (ZARYA),1998-067A,2020-08-31T18:30:32.535360,15.49204331,.0001906,51.6469,334.4170,75.3351,67.4452,0,U,25544,999,24373,.34606E-4,.1471E-4,0
ISS (ZARYA),1998-067A,2020-09-01T05:37:05.308608,15.49206112,.0001906,51.6469,332.1259,77.0322,128.9945,0,U,25544,999,24380,.34606E-4,.1471E-4,0
ISS (ZARYA),1998-067A,2020-09-01T11:18:50.324256,15.49205543,.0001969,51.6470,330.9523,76.0427,14.4534,0,U,25544,999,24384,.30163E-4,.1224E-4,0
ISS (ZARYA),1998-067A,2020-09-01T13:01:32.049984,15.49205005,.0001969,51.6470,330.5993,76.3035,52.1929,0,U,25544,999,24385,.28011E-4,.1105E-4,0
ISS (ZARYA),1998-067A,2020-09-01T17:42:36.474624,15.49206067,.0001968,51.6470,329.6332,77.0210,60.7989,0,U,25544,999,24388,.29013E-4,.116E-4,0
ISS (ZARYA),1998-067A,2020-09-01T17:42:36.474624,15.49206744,.0001977,51.6475,329.6346,75.2782,62.5422,0,U,25544,999,24388,.31259E-4,.1285E-4,0
ISS (ZARYA),1998-067A,2020-09-02T05:38:05.595936,15.49209074,.0002033,51.6478,327.1776,73.5388,317.1982,0,U,25544,999,24396,.3456E-4,.1468E-4,0
ISS (ZARYA),1998-067A,2020-09-02T12:33:47.000160,15.49209382,.0001979,51.6475,325.7476,76.1582,125.6187,0,U,25544,999,24400,.30384E-4,.1237E-4,0
ISS (ZARYA),1998-067A,2020-09-02T16:55:05.909664,15.49210283,.0002,51.6476,324.8498,75.7486,58.7771,0,U,25544,999,24403,.31208E-4,.1282E-4,0
ISS (ZARYA),1998-067A,2020-09-03T01:56:35.167776,15.49211586,.0001999,51.6476,322.9885,76.6859,356.4205,0,U,25544,999,24409,.31127E-4,.1278E-4,0
ISS (ZARYA),1998-067A,2020-09-03T05:12:27.434016,15.49212317,.000198,51.6476,322.3154,77.4087,34.8144,0,U,25544,999,24411,.31759E-4,.1313E-4,0
ISS (ZARYA),1998-067A,2020-09-03T09:42:01.108800,15.49212758,.000199,51.6474,321.3900,79.3633,357.5665,0,U,25544,999,24414,.31384E-4,.1292E-4,0
ISS (ZARYA),1998-067A,2020-09-03T13:02:05.195616,15.49214215,.000199,51.6474,320.7023,79.8727,52.4419,0,U,25544,999,24416,.35371E-4,.1514E-4,0
ISS (ZARYA),1998-067A,2020-09-03T17:44:10.663584,15.49215099,.000199,51.6474,319.7327,80.5924,64.9928,0,U,25544,999,24419,.36012E-4,.1549E-4,0
ISS (ZARYA),1998-067A,2020-09-03T22:29:43.145088,15.49215077,.0002008,51.6479,318.7522,79.3887,92.8345,0,U,25544,999,24422,.33077E-4,.1386E-4,0
ISS (ZARYA),1998-067A,2020-09-04T04:02:23.698176,15.49215949,.0002004,51.6478,317.6087,80.1777,301.3626,0,U,25544,999,24426,.33114E-4,.1388E-4,0
ISS (ZARYA),1998-067A,2020-09-04T05:56:15.810144,15.49215668,.0002004,51.6478,317.2174,80.4703,22.3765,0,U,25544,999,24427,.31518E-4,.13E-4,0
ISS (ZARYA),1998-067A,2020-09-04T10:54:52.000128,15.49211068,.0002005,51.6467,316.1940,80.9135,99.1849,0,U,25544,999,24430,.55001E-6,-.419E-5,0
ISS (ZARYA),1998-067A,2020-09-04T13:51:10.561248,15.49215079,.0002005,51.6467,315.5879,81.3643,62.0421,0,U,25544,999,24432,.26917E-4,.1044E-4,0
ISS (ZARYA),1998-067A,2020-09-04T16:58:49.041120,15.49214624,.0002005,51.6467,314.9430,81.8433,68.7821,0,U,25544,999,24434,.23714E-4,.867E-5,0
ISS (ZARYA),1998-067A,2020-09-04T19:54:07.155936,15.49214537,.0002005,51.6467,314.3404,82.2929,27.7305,0,U,25544,999,24436,.2198E-4,.77E-5,0
